start=new Date('2021-09-11T00:00:00.000Z').valueOf();
sats=[{"REV_AT_EPOCH":"8683","APOAPSIS":"548.384","MEAN_ELEMENT_THEORY":"SGP4","TLE_LINE2":"2 45184  53.0534 192.8376 0001685  65.9012 294.2153 15.06398993 86837","NORAD_CAT_ID":"45184","PERIAPSIS":"546.050","CENTER_NAME":"EARTH","MEAN_ANOMALY":"294.2153","REF_FRAME":"TEME","TIME_SYSTEM":"UTC","EPOCH":"2021-09-10T19:20:26.312640","OBJECT_ID":"2020-012G","LAUNCH_DATE":"2020-02-17","TLE_LINE1":"1 45184U 20012G   21253.80586010  .00001250  00000-0  10278-3 0  9997","BSTAR":"0.00010278000000","ARG_OF_PERICENTER":"65.9012","INCLINATION":"53.0534","ECCENTRICITY":"0.00016850","RCS_SIZE":"LARGE","DECAY_DATE":null,"RA_OF_ASC_NODE":"192.8376","MEAN_MOTION_DDOT":"0.0000000000000","MEAN_MOTION_DOT":"0.00001250","OBJECT_TYPE":"PAYLOAD","EPHEMERIS_TYPE":"0","ELEMENT_SET_NO":"999","GP_ID":"184473212","CLASSIFICATION_TYPE":"U","OBJECT_NAME":"STARLINK-1205","COUNTRY_CODE":"US","MEAN_MOTION":"15.06398993","FILE":"3112758","SITE":"AFETR","PERIOD":"95.592","SEMIMAJOR_AXIS":"6925.352"},{"RCS_SIZE":"LARGE","ECCENTRICITY":"0.00016100","INCLINATION":"53.0537","ARG_OF_PERICENTER":"43.0268","BSTAR":"0.00010174000000","TLE_LINE1":"1 45185U 20012H   21253.40962468  .00001234  00000-0  10174-3 0  9996","OBJECT_ID":"2020-012H","LAUNCH_DATE":"2020-02-17","EPOCH":"2021-09-10T09:49:51.572352","TIME_SYSTEM":"UTC","REF_FRAME":"TEME","MEAN_ANOMALY":"317.0847","CENTER_NAME":"EARTH","TLE_LINE2":"2 45185  53.0537 214.6136 0001610  43.0268 317.0847 15.06401065 87409","NORAD_CAT_ID":"45185","PERIAPSIS":"546.095","MEAN_ELEMENT_THEORY":"SGP4","APOAPSIS":"548.325","REV_AT_EPOCH":"8740","SEMIMAJOR_AXIS":"6925.345","PERIOD":"95.592","SITE":"AFETR","MEAN_MOTION":"15.06401065","FILE":"3112362","COUNTRY_CODE":"US","OBJECT_NAME":"STARLINK-1216","GP_ID":"184441049","CLASSIFICATION_TYPE":"U","ELEMENT_SET_NO":"999","EPHEMERIS_TYPE":"0","OBJECT_TYPE":"PAYLOAD","MEAN_MOTION_DOT":"0.00001234","MEAN_MOTION_DDOT":"0.0000000000000","RA_OF_ASC_NODE":"214.6136","DECAY_DATE":null},{"REF_FRAME":"TEME","TIME_SYSTEM":"UTC","EPOCH":"2021-09-10T19:44:21.561792","TLE_LINE2":"2 45186  53.0542 212.7590 0001644  45.4021 314.7102 15.06406939 87468","NORAD_CAT_ID":"45186","PERIAPSIS":"546.054","CENTER_NAME":"EARTH","MEAN_ANOMALY":"314.7102","APOAPSIS":"548.331","MEAN_ELEMENT_THEORY":"SGP4","REV_AT_EPOCH":"8746","RCS_SIZE":"LARGE","BSTAR":"0.00009096700000","ARG_OF_PERICENTER":"45.4021","INCLINATION":"53.0542","ECCENTRICITY":"0.00016440","TLE_LINE1":"1 45186U 20012J   21253.82247178  .00001074  00000-0  90967-4 0  9998","LAUNCH_DATE":"2020-02-17","OBJECT_ID":"2020-012J","ELEMENT_SET_NO":"999","CLASSIFICATION_TYPE":"U","GP_ID":"184471711","OBJECT_NAME":"STARLINK-1224","COUNTRY_CODE":"US","OBJECT_TYPE":"PAYLOAD","EPHEMERIS_TYPE":"0","MEAN_MOTION_DDOT":"0.0000000000000","MEAN_MOTION_DOT":"0.00001074","DECAY_DATE":null,"RA_OF_ASC_NODE":"212.7590","SEMIMAJOR_AXIS":"6925.327","FILE":"3112758","MEAN_MOTION":"15.06406939","SITE":"AFETR","PERIOD":"95.592"},{"NORAD_CAT_ID":"45187","TLE_LINE2":"2 45187  53.0526 212.4497 0001409  49.4062 310.7049 15.06433401 87529","PERIAPSIS":"546.135","CENTER_NAME":"EARTH","MEAN_ANOMALY":"310.7049","REF_FRAME":"TEME","TIME_SYSTEM":"UTC","EPOCH":"2021-09-10T21:25:08.945760","REV_AT_EPOCH":"8752","MEAN_ELEMENT_THEORY":"SGP4","APOAPSIS":"548.087","BSTAR":"-0.00026678000000","INCLINATION":"53.0526","ARG_OF_PERICENTER":"49.4062","ECCENTRICITY":"0.00014090","RCS_SIZE":"LARGE","OBJECT_ID":"2020-012K","LAUNCH_DATE":"2020-02-17","TLE_LINE1":"1 45187U 20012K   21253.89246465 -.00004257  00000-0 -26678-3 0  9999","OBJECT_TYPE":"PAYLOAD","EPHEMERIS_TYPE":"0","ELEMENT_SET_NO":"999","GP_ID":"184471961","CLASSIFICATION_TYPE":"U","OBJECT_NAME":"STARLINK-1225","COUNTRY_CODE":"US","DECAY_DATE":null,"RA_OF_ASC_NODE":"212.4497","MEAN_MOTION_DDOT":"0.0000000000000","MEAN_MOTION_DOT":"-0.00004257","SEMIMAJOR_AXIS":"6925.246","FILE":"3112758","MEAN_MOTION":"15.06433401","SITE":"AFETR","PERIOD":"95.590"},{"RA_OF_ASC_NODE":"172.3195","DECAY_DATE":null,"MEAN_MOTION_DOT":"-0.00000016","MEAN_MOTION_DDOT":"0.0000000000000","EPHEMERIS_TYPE":"0","OBJECT_TYPE":"PAYLOAD","OBJECT_NAME":"STARLINK-1228","COUNTRY_CODE":"US","ELEMENT_SET_NO":"999","CLASSIFICATION_TYPE":"U","GP_ID":"184472713","SITE":"AFETR","PERIOD":"95.592","FILE":"3112758","MEAN_MOTION":"15.06397786","SEMIMAJOR_AXIS":"6925.355","REV_AT_EPOCH":"8804","APOAPSIS":"548.432","MEAN_ELEMENT_THEORY":"SGP4","MEAN_ANOMALY":"300.1884","NORAD_CAT_ID":"45188","TLE_LINE2":"2 45188  53.0541 172.3195 0001750  59.9279 300.1884 15.06397786 88044","PERIAPSIS":"546.008","CENTER_NAME":"EARTH","EPOCH":"2021-09-10T22:07:38.498304","REF_FRAME":"TEME","TIME_SYSTEM":"UTC","OBJECT_ID":"2020-012L","LAUNCH_DATE":"2020-02-17","TLE_LINE1":"1 45188U 20012L   21253.92197336 -.00000016  00000-0  17837-4 0  9992","INCLINATION":"53.0541","ARG_OF_PERICENTER":"59.9279","ECCENTRICITY":"0.00017500","BSTAR":"0.00001783700000","RCS_SIZE":"LARGE"},{"TIME_SYSTEM":"UTC","REF_FRAME":"TEME","EPOCH":"2021-09-10T21:30:29.221056","CENTER_NAME":"EARTH","TLE_LINE2":"2 45189  53.0540 212.4296 0001458  59.9895 300.1239 15.06400177 84758","NORAD_CAT_ID":"45189","PERIAPSIS":"546.203","MEAN_ANOMALY":"300.1239","APOAPSIS":"548.223","MEAN_ELEMENT_THEORY":"SGP4","REV_AT_EPOCH":"8475","RCS_SIZE":"LARGE","BSTAR":"0.00010046000000","ECCENTRICITY":"0.00014580","INCLINATION":"53.0540","ARG_OF_PERICENTER":"59.9895","TLE_LINE1":"1 45189U 20012M   21253.89617154  .00001215  00000-0  10046-3 0  9999","LAUNCH_DATE":"2020-02-17","OBJECT_ID":"2020-012M","CLASSIFICATION_TYPE":"U","GP_ID":"184473463","ELEMENT_SET_NO":"999","COUNTRY_CODE":"US","OBJECT_NAME":"STARLINK-1230","EPHEMERIS_TYPE":"0","OBJECT_TYPE":"PAYLOAD","MEAN_MOTION_DDOT":"0.0000000000000","MEAN_MOTION_DOT":"0.00001215","DECAY_DATE":null,"RA_OF_ASC_NODE":"212.4296","SEMIMAJOR_AXIS":"6925.348","FILE":"3112758","MEAN_MOTION":"15.06400177","PERIOD":"95.592","SITE":"AFETR"},{"REV_AT_EPOCH":"8799","APOAPSIS":"548.643","MEAN_ELEMENT_THEORY":"SGP4","MEAN_ANOMALY":"292.9889","CENTER_NAME":"EARTH","TLE_LINE2":"2 45190  53.0544 172.3502 0002064  67.1318 292.9889 15.06400017 87994","NORAD_CAT_ID":"45190","PERIAPSIS":"545.784","EPOCH":"2021-09-10T21:57:01.338912","TIME_SYSTEM":"UTC","REF_FRAME":"TEME","LAUNCH_DATE":"2020-02-17","OBJECT_ID":"2020-012N","TLE_LINE1":"1 45190U 20012N   21253.91459883 -.00000180  00000-0  68082-5 0  9993","ECCENTRICITY":"0.00020640","INCLINATION":"53.0544","ARG_OF_PERICENTER":"67.1318","BSTAR":"0.00000680820000","RCS_SIZE":"LARGE","RA_OF_ASC_NODE":"172.3502","DECAY_DATE":null,"MEAN_MOTION_DOT":"-0.00000180","MEAN_MOTION_DDOT":"0.0000000000000","EPHEMERIS_TYPE":"0","OBJECT_TYPE":"PAYLOAD","COUNTRY_CODE":"US","OBJECT_NAME":"STARLINK-1234","CLASSIFICATION_TYPE":"U","GP_ID":"184472211","ELEMENT_SET_NO":"999","PERIOD":"95.592","SITE":"AFETR","MEAN_MOTION":"15.06400017","FILE":"3112758","SEMIMAJOR_AXIS":"6925.349"},{"MEAN_MOTION":"15.06407689","FILE":"3112668","PERIOD":"95.592","SITE":"AFETR","SEMIMAJOR_AXIS":"6925.325","MEAN_MOTION_DDOT":"0.0000000000000","MEAN_MOTION_DOT":"0.00001576","DECAY_DATE":null,"RA_OF_ASC_NODE":"214.7860","GP_ID":"184450954","CLASSIFICATION_TYPE":"U","ELEMENT_SET_NO":"999","COUNTRY_CODE":"US","OBJECT_NAME":"STARLINK-1236","OBJECT_TYPE":"PAYLOAD","EPHEMERIS_TYPE":"0","TLE_LINE1":"1 45191U 20012P   21253.37275971  .00001576  00000-0  12463-3 0  9997","LAUNCH_DATE":"2020-02-17","OBJECT_ID":"2020-012P","RCS_SIZE":"LARGE","BSTAR":"0.00012463000000","ECCENTRICITY":"0.00012740","ARG_OF_PERICENTER":"37.6446","INCLINATION":"53.0546","MEAN_ELEMENT_THEORY":"SGP4","APOAPSIS":"548.072","REV_AT_EPOCH":"8680","TIME_SYSTEM":"UTC","REF_FRAME":"TEME","EPOCH":"2021-09-10T08:56:46.438944","CENTER_NAME":"EARTH","NORAD_CAT_ID":"45191","TLE_LINE2":"2 45191  53.0546 214.7860 0001274  37.6446 322.4632 15.06407689 86807","PERIAPSIS":"546.308","MEAN_ANOMALY":"322.4632"},{"OBJECT_NAME":"STARLINK-1237","COUNTRY_CODE":"US","ELEMENT_SET_NO":"999","CLASSIFICATION_TYPE":"U","GP_ID":"184473213","OBJECT_TYPE":"PAYLOAD","EPHEMERIS_TYPE":"0","MEAN_MOTION_DOT":"-0.00001601","MEAN_MOTION_DDOT":"0.0000000000000","RA_OF_ASC_NODE":"212.5179","DECAY_DATE":null,"SEMIMAJOR_AXIS":"6925.376","SITE":"AFETR","PERIOD":"95.593","MEAN_MOTION":"15.06391113","FILE":"3112758","EPOCH":"2021-09-10T21:03:57.200832","REF_FRAME":"TEME","TIME_SYSTEM":"UTC","MEAN_ANOMALY":"319.9012","NORAD_CAT_ID":"45192","TLE_LINE2":"2 45192  53.0550 212.5179 0001408  40.2081 319.9012 15.06391113 87534","PERIAPSIS":"546.266","CENTER_NAME":"EARTH","MEAN_ELEMENT_THEORY":"SGP4","APOAPSIS":"548.216","REV_AT_EPOCH":"8753","RCS_SIZE":"LARGE","ARG_OF_PERICENTER":"40.2081","INCLINATION":"53.0550","ECCENTRICITY":"0.00014080","BSTAR":"-0.00008864200000","TLE_LINE1":"1 45192U 20012Q   21253.87774538 -.00001601  00000-0 -88642-4 0  9990","LAUNCH_DATE":"2020-02-17","OBJECT_ID":"2020-012Q"},{"SEMIMAJOR_AXIS":"6925.350","PERIOD":"95.592","SITE":"AFETR","MEAN_MOTION":"15.06399527","FILE":"3112758","OBJECT_TYPE":"PAYLOAD","EPHEMERIS_TYPE":"0","COUNTRY_CODE":"US","OBJECT_NAME":"STARLINK-1239","CLASSIFICATION_TYPE":"U","GP_ID":"184472964","ELEMENT_SET_NO":"999","RA_OF_ASC_NODE":"212.2642","DECAY_DATE":null,"MEAN_MOTION_DOT":"-0.00000623","MEAN_MOTION_DDOT":"0.0000000000000","ECCENTRICITY":"0.00013500","INCLINATION":"53.0537","ARG_OF_PERICENTER":"54.6090","BSTAR":"-0.00002292000000","RCS_SIZE":"LARGE","LAUNCH_DATE":"2020-02-17","OBJECT_ID":"2020-012R","TLE_LINE1":"1 45193U 20012R   21253.93303972 -.00000623  00000-0 -22920-4 0  9998","MEAN_ANOMALY":"305.5025","CENTER_NAME":"EARTH","TLE_LINE2":"2 45193  53.0537 212.2642 0001350  54.6090 305.5025 15.06399527 87483","PERIAPSIS":"546.280","NORAD_CAT_ID":"45193","EPOCH":"2021-09-10T22:23:34.631808","TIME_SYSTEM":"UTC","REF_FRAME":"TEME","REV_AT_EPOCH":"8748","APOAPSIS":"548.150","MEAN_ELEMENT_THEORY":"SGP4"}];
